[
   {
      "name": "PROXIMA II",
      "line1": "1 43696U 18088G   21092.84679701  .00001902  00000-0  79568-4 0  9990",
      "line2": "2 43696  85.0310 245.3336 0016893 302.3072  57.6533 15.22729084132866",
      "drg": 7.9568,
      "inc": 85.031,
      "ran": 245.3336,
      "ecc": 0.0016893,
      "aop": 302.3072,
      "man": 57.6533,
      "mmo": 15.22729084,
      "sma": 6875.75003
   },
   {
      "name": "FACSAT-1",
      "line1": "1 43721U 18096C   21092.80208082  .00002576  00000-0  95297-4 0  9999",
      "line2": "2 43721  97.3884 170.5244 0017029 173.9950 328.1631 15.28482315130562",
      "drg": 9.5297,
      "inc": 97.3884,
      "ran": 170.5244,
      "ecc": 0.0017029,
      "aop": 173.995,
      "man": 328.1631,
      "mmo": 15.28482315,
      "sma": 6858.48557
   },
   {
      "name": "CENTAURI-2",
      "line1": "1 43722U 18096D   21092.79936643  .00003961  00000-0  14076-3 0  9993",
      "line2": "2 43722  97.3906 171.1726 0017063 173.1795 186.9681 15.29468356130595",
      "drg": 14.076,
      "inc": 97.3906,
      "ran": 171.1726,
      "ecc": 0.0017063,
      "aop": 173.1795,
      "man": 186.9681,
      "mmo": 15.29468356,
      "sma": 6855.5375
   },
   {
      "name": "INNOSAT-2",
      "line1": "1 43738U 18096V   21092.76203212  .00005575  00000-0  17762-3 0  9994",
      "line2": "2 43738  97.3947 174.4716 0022141 176.8343 281.7932 15.32723959130808",
      "drg": 17.762,
      "inc": 97.3947,
      "ran": 174.4716,
      "ecc": 0.0022141,
      "aop": 176.8343,
      "man": 281.7932,
      "mmo": 15.32723959,
      "sma": 6845.82633
   },
   {
      "name": "SIRION PATHFINDER-2",
      "line1": "1 43759U 18099B   21092.85247984  .00000087  00000-0  13020-4 0  9991",
      "line2": "2 43759  97.6701 165.0615 0012932 298.9706  61.0218 14.95463117127180",
      "drg": 1.302,
      "inc": 97.6701,
      "ran": 165.0615,
      "ecc": 0.0012932,
      "aop": 298.9706,
      "man": 61.0218,
      "mmo": 14.95463117,
      "sma": 6959.07265
   },
   {
      "name": "CORVUS BC4",
      "line1": "1 43767U 18099K   21092.83508570 -.00000080  00000-0 -21205-5 0  9999",
      "line2": "2 43767  97.6679 164.1280 0010451 305.4971  54.5274 14.94895343127136",
      "drg": -0.21205,
      "inc": 97.6679,
      "ran": 164.128,
      "ecc": 0.0010451,
      "aop": 305.4971,
      "man": 54.5274,
      "mmo": 14.94895343,
      "sma": 6960.83462
   },
   {
      "name": "MOVE-II",
      "line1": "1 43780U 18099Y   21092.75639330  .00000945  00000-0  89715-4 0  9991",
      "line2": "2 43780  97.6728 165.0475 0012029 312.2384  47.7816 14.95810101127157",
      "drg": 8.9715,
      "inc": 97.6728,
      "ran": 165.0475,
      "ecc": 0.0012029,
      "aop": 312.2384,
      "man": 47.7816,
      "mmo": 14.95810101,
      "sma": 6957.99641
   },
   {
      "name": "SPACEBEE-7",
      "line1": "1 43816U 18099BL  21092.77866307  .00000167  00000-0  19957-4 0  9996",
      "line2": "2 43816  97.6738 165.6269 0011950 293.8174  66.1794 14.96030546126740",
      "drg": 1.9957,
      "inc": 97.6738,
      "ran": 165.6269,
      "ecc": 0.001195,
      "aop": 293.8174,
      "man": 66.1794,
      "mmo": 14.96030546,
      "sma": 6957.31287
   },
   {
      "name": "SPACEBEE-5",
      "line1": "1 43817U 18099BM  21092.90957549  .00001022  00000-0  93543-4 0  9995",
      "line2": "2 43817  97.6823 166.8014 0011486 292.0109  67.9893 14.97111366126807",
      "drg": 9.3543,
      "inc": 97.6823,
      "ran": 166.8014,
      "ecc": 0.0011486,
      "aop": 292.0109,
      "man": 67.9893,
      "mmo": 14.97111366,
      "sma": 6953.96397
   },
   {
      "name": "SPACEBEE-6",
      "line1": "1 43818U 18099BN  21092.62700839  .00001068  00000-0  99301-4 0  9991",
      "line2": "2 43818  97.6768 165.7989 0011557 294.1331  65.8682 14.96362132126883",
      "drg": 9.9301,
      "inc": 97.6768,
      "ran": 165.7989,
      "ecc": 0.0011557,
      "aop": 294.1331,
      "man": 65.8682,
      "mmo": 14.96362132,
      "sma": 6956.28503
   },
   {
      "name": "SHIELDS 1",
      "line1": "1 43850U 18104B   21092.70689029  .00000830  00000-0  34684-4 0  9999",
      "line2": "2 43850  85.0315 344.0664 0017136  87.4752 272.8452 15.21777451127451",
      "drg": 3.4684,
      "inc": 85.0315,
      "ran": 344.0664,
      "ecc": 0.0017136,
      "aop": 87.4752,
      "man": 272.8452,
      "mmo": 15.21777451,
      "sma": 6878.6162
   },
   {
      "name": "STF-1",
      "line1": "1 43852U 18104D   21092.76504269  .00001870  00000-0  79481-4 0  9998",
      "line2": "2 43852  85.0354 344.6933 0016606  99.4279 260.8841 15.22184884127440",
      "drg": 7.9481,
      "inc": 85.0354,
      "ran": 344.6933,
      "ecc": 0.0016606,
      "aop": 99.4279,
      "man": 260.8841,
      "mmo": 15.22184884,
      "sma": 6877.38871
   },
   {
      "name": "ZACUBE-2",
      "line1": "1 43907U 18111AH  21092.80951331  .00000909  00000-0  38963-4 0  9990",
      "line2": "2 43907  97.2410 349.4679 0020505 196.4694 250.2991 15.25060190126108",
      "drg": 3.8963,
      "inc": 97.241,
      "ran": 349.4679,
      "ecc": 0.0020505,
      "aop": 196.4694,
      "man": 250.2991,
      "mmo": 15.2506019,
      "sma": 6868.7417
   },
   {
      "name": "LUME 1",
      "line1": "1 43908U 18111AJ  21092.66303653  .00001801  00000-0  72540-4 0  9994",
      "line2": "2 43908  97.2412 349.7769 0020006 195.3431 164.7204 15.25961698126117",
      "drg": 7.254,
      "inc": 97.2412,
      "ran": 349.7769,
      "ecc": 0.0020006,
      "aop": 195.3431,
      "man": 164.7204,
      "mmo": 15.25961698,
      "sma": 6866.03616
   },
   {
      "name": "AOBA VELOX-IV",
      "line1": "1 43940U 19003J   21092.87964995  .00004065  00000-0  15672-3 0  9993",
      "line2": "2 43940  97.1876 139.8029 0020968 278.0056  81.8804 15.26668151122774",
      "drg": 15.672,
      "inc": 97.1876,
      "ran": 139.8029,
      "ecc": 0.0020968,
      "aop": 278.0056,
      "man": 81.8804,
      "mmo": 15.26668151,
      "sma": 6863.91786
   },
   {
      "name": "CATSAT-2",
      "line1": "1 44029U 98067PV  21092.66691161  .00559620  16061-3  77464-3 0  9994",
      "line2": "2 44029  51.6369 268.1700 0007543 274.3578  85.6573 16.05374711124118",
      "drg": 77.464,
      "inc": 51.6369,
      "ran": 268.17,
      "ecc": 0.0007543,
      "aop": 274.3578,
      "man": 85.6573,
      "mmo": 16.05374711,
      "sma": 6637.69913
   },
   {
      "name": "UNITE",
      "line1": "1 44031U 98067PX  21092.85364682  .00038163  00000-0  28022-3 0  9996",
      "line2": "2 44031  51.6370 294.3550 0001416 113.4667 246.6480 15.72726494123759",
      "drg": 28.022,
      "inc": 51.637,
      "ran": 294.355,
      "ecc": 0.0001416,
      "aop": 113.4667,
      "man": 246.648,
      "mmo": 15.72726494,
      "sma": 6729.2455
   },
   {
      "name": "CATSAT-1",
      "line1": "1 44033U 98067PZ  21092.66772067  .00532181  14470-3  75361-3 0  9993",
      "line2": "2 44033  51.6365 268.1677 0007276 268.6667  91.3512 16.05010468124023",
      "drg": 75.361,
      "inc": 51.6365,
      "ran": 268.1677,
      "ecc": 0.0007276,
      "aop": 268.6667,
      "man": 91.3512,
      "mmo": 16.05010468,
      "sma": 6638.70334
   },
   {
      "name": "RAAVANA-1",
      "line1": "1 44329U 98067QE  21092.85961157  .00040556  00000-0  32711-3 0  9995",
      "line2": "2 44329  51.6351 313.2499 0002704   4.1068 355.9951 15.70458892102254",
      "drg": 32.711,
      "inc": 51.6351,
      "ran": 313.2499,
      "ecc": 0.0002704,
      "aop": 4.1068,
      "man": 355.9951,
      "mmo": 15.70458892,
      "sma": 6735.72156
   },
   {
      "name": "UGUISU",
      "line1": "1 44330U 98067QF  21092.90054671  .00040642  00000-0  33208-3 0  9995",
      "line2": "2 44330  51.6329 313.4490 0002740   4.9395 355.1629 15.70145267102236",
      "drg": 33.208,
      "inc": 51.6329,
      "ran": 313.449,
      "ecc": 0.000274,
      "aop": 4.9395,
      "man": 355.1629,
      "mmo": 15.70145267,
      "sma": 6736.61847
   },
   {
      "name": "NEPALISAT-1",
      "line1": "1 44331U 98067QG  21092.85220881  .00040219  00000-0  32506-3 0  9998",
      "line2": "2 44331  51.6331 313.1257 0002708   8.9844 351.1201 15.70412947102240",
      "drg": 32.506,
      "inc": 51.6331,
      "ran": 313.1257,
      "ecc": 0.0002708,
      "aop": 8.9844,
      "man": 351.1201,
      "mmo": 15.70412947,
      "sma": 6735.85294
   },
   {
      "name": "SPOOQY-1",
      "line1": "1 44332U 98067QH  21092.89877283  .00040861  00000-0  33774-3 0  9998",
      "line2": "2 44332  51.6343 313.4675 0002222  16.7232 343.3838 15.69865747102203",
      "drg": 33.774,
      "inc": 51.6343,
      "ran": 313.4675,
      "ecc": 0.0002222,
      "aop": 16.7232,
      "man": 343.3838,
      "mmo": 15.69865747,
      "sma": 6737.4181
   },
   {
      "name": "SPACEBEE-9",
      "line1": "1 44370U 19037F   21092.82964686  .00029027  00000-0  45937-3 0  9992",
      "line2": "2 44370  45.0016 289.0334 0007666 144.0779 216.0631 15.52942391 99415",
      "drg": 45.937,
      "inc": 45.0016,
      "ran": 289.0334,
      "ecc": 0.0007666,
      "aop": 144.0779,
      "man": 216.0631,
      "mmo": 15.52942391,
      "sma": 6786.27745
   },
   {
      "name": "SPACEBEE-8",
      "line1": "1 44371U 19037G   21092.85703245  .00313071  00000-0  14532-2 0  9999",
      "line2": "2 44371  44.9966 258.6394 0012523 286.8963  73.0567 15.81718259 99778",
      "drg": 145.32,
      "inc": 44.9966,
      "ran": 258.6394,
      "ecc": 0.0012523,
      "aop": 286.8963,
      "man": 73.0567,
      "mmo": 15.81718259,
      "sma": 6703.7183
   },
   {
      "name": "MOVE-IIB",
      "line1": "1 44398U 19038N   21092.94142185  .00002096  00000-0  12056-3 0  9991",
      "line2": "2 44398  97.5745  57.3342 0023434 206.7521 153.2503 15.13369448 96345",
      "drg": 12.056,
      "inc": 97.5745,
      "ran": 57.3342,
      "ecc": 0.0023434,
      "aop": 206.7521,
      "man": 153.2503,
      "mmo": 15.13369448,
      "sma": 6904.07022
   }
]